{"type": "FeatureCollection", "features": [ {"type": "Feature", "properties": {"norad_id": 17070, "name": "POLAR BEAR", "group": "nnss", "lat": -15.28611221721932, "lon": 3.4510839119047905, "alt_km": 994.149970671524, "timestamp": "2025-12-23T09:49:07.351650+00:00", "meta": {"OBJECT_NAME": "POLAR BEAR", "OBJECT_ID": "1986-088A", "EPOCH": "2025-12-22T18:57:32.537088", "MEAN_MOTION": 13.75252809, "ECCENTRICITY": 0.00412955, "INCLINATION": 89.617, "RA_OF_ASC_NODE": 183.3713, "ARG_OF_PERICENTER": 90.332, "MEAN_ANOMALY": 280.8832, "EPHEMERIS_TYPE": 0, "CLASSIFICATION_TYPE": "U", "NORAD_CAT_ID": 17070, "ELEMENT_SET_NO": 999, "REV_AT_EPOCH": 96117, "BSTAR": 9.0388207e-05, "MEAN_MOTION_DOT": 9.9e-07, "MEAN_MOTION_DDOT": 0}, "tle": {"line1": "1 17070U 86088A   25356.78995992  .00000099  00000+0  90388-4 0  9993", "line2": "2 17070  89.6170 183.3713 0041295  90.3320 280.8832 13.75252809961179"}}, "geometry": {"type": "Point", "coordinates": [3.4510839119047905, -15.28611221721932]}}, {"type": "Feature", "properties": {"norad_id": 18361, "name": "OSCAR 27", "group": "nnss", "lat": 8.265172430527567, "lon": 79.61696648503043, "alt_km": 1170.104758479758, "timestamp": "2025-12-23T09:49:07.351661+00:00", "meta": {"OBJECT_NAME": "OSCAR 27", "OBJECT_ID": "1987-080A", "EPOCH": "2025-12-22T19:29:31.902720", "MEAN_MOTION": 13.4490871, "ECCENTRICITY": 0.01037536, "INCLINATION": 90.3738, "RA_OF_ASC_NODE": 79.649, "ARG_OF_PERICENTER": 194.7719, "MEAN_ANOMALY": 165.0392, "EPHEMERIS_TYPE": 0, "CLASSIFICATION_TYPE": "U", "NORAD_CAT_ID": 18361, "ELEMENT_SET_NO": 999, "REV_AT_EPOCH": 87692, "BSTAR": 0.00017203932, "MEAN_MOTION_DOT": 1.12e-06, "MEAN_MOTION_DDOT": 0}, "tle": {"line1": "1 18361U 87080A   25356.81217480  .00000112  00000+0  17204-3 0  9994", "line2": "2 18361  90.3738  79.6490 0103753 194.7719 165.0392 13.44908710876928"}}, "geometry": {"type": "Point", "coordinates": [79.61696648503043, 8.265172430527567]}}, {"type": "Feature", "properties": {"norad_id": 18362, "name": "OSCAR 29", "group": "nnss", "lat": 3.4292659360075364, "lon": 80.1085607083453, "alt_km": 1160.7236997574764, "timestamp": "2025-12-23T09:49:07.351672+00:00", "meta": {"OBJECT_NAME": "OSCAR 29", "OBJECT_ID": "1987-080B", "EPOCH": "2025-12-22T20:08:15.720576", "MEAN_MOTION": 13.44450285, "ECCENTRICITY": 0.01045724, "INCLINATION": 90.375, "RA_OF_ASC_NODE": 80.1097, "ARG_OF_PERICENTER": 217.9075, "MEAN_ANOMALY": 267.5994, "EPHEMERIS_TYPE": 0, "CLASSIFICATION_TYPE": "U", "NORAD_CAT_ID": 18362, "ELEMENT_SET_NO": 999, "REV_AT_EPOCH": 87645, "BSTAR": 0.00017076308, "MEAN_MOTION_DOT": 1.1e-06, "MEAN_MOTION_DDOT": 0}, "tle": {"line1": "1 18362U 87080B   25356.83907084  .00000110  00000+0  17076-3 0  9998", "line2": "2 18362  90.3750  80.1097 0104572 217.9075 267.5994 13.44450285876459"}}, "geometry": {"type": "Point", "coordinates": [80.1085607083453, 3.4292659360075364]}}, {"type": "Feature", "properties": {"norad_id": 19070, "name": "OSCAR 23", "group": "nnss", "lat": -41.29659559128384, "lon": -163.5585797730153, "alt_km": 1112.3426027261075, "timestamp": "2025-12-23T09:49:07.351682+00:00", "meta": {"OBJECT_NAME": "OSCAR 23", "OBJECT_ID": "1988-033A", "EPOCH": "2025-12-22T19:07:39.023616", "MEAN_MOTION": 13.27788756, "ECCENTRICITY": 0.01903326, "INCLINATION": 90.3204, "RA_OF_ASC_NODE": 16.704, "ARG_OF_PERICENTER": 152.0139, "MEAN_ANOMALY": 22.822, "EPHEMERIS_TYPE": 0, "CLASSIFICATION_TYPE": "U", "NORAD_CAT_ID": 19070, "ELEMENT_SET_NO": 999, "REV_AT_EPOCH": 82386, "BSTAR": 0.00014372117, "MEAN_MOTION_DOT": 8.1e-07, "MEAN_MOTION_DDOT": 0}, "tle": {"line1": "1 19070U 88033A   25356.79697944  .00000081  00000+0  14372-3 0  9993", "line2": "2 19070  90.3204  16.7040 0190332 152.0139  22.8220 13.27788756823861"}}, "geometry": {"type": "Point", "coordinates": [-163.5585797730153, -41.29659559128384]}}, {"type": "Feature", "properties": {"norad_id": 19071, "name": "OSCAR 32", "group": "nnss", "lat": -24.91627004754338, "lon": 17.004700989880497, "alt_km": 1295.3096643344106, "timestamp": "2025-12-23T09:49:07.351693+00:00", "meta": {"OBJECT_NAME": "OSCAR 32", "OBJECT_ID": "1988-033B", "EPOCH": "2025-12-22T20:20:17.197728", "MEAN_MOTION": 13.27955549, "ECCENTRICITY": 0.01890971, "INCLINATION": 90.3208, "RA_OF_ASC_NODE": 16.8381, "ARG_OF_PERICENTER": 138.7954, "MEAN_ANOMALY": 33.3896, "EPHEMERIS_TYPE": 0, "CLASSIFICATION_TYPE": "U", "NORAD_CAT_ID": 19071, "ELEMENT_SET_NO": 999, "REV_AT_EPOCH": 82399, "BSTAR": 0.00014844985, "MEAN_MOTION_DOT": 8.4e-07, "MEAN_MOTION_DDOT": 0}, "tle": {"line1": "1 19071U 88033B   25356.84742127  .00000084  00000+0  14845-3 0  9992", "line2": "2 19071  90.3208  16.8381 0189097 138.7954  33.3896 13.27955549823993"}}, "geometry": {"type": "Point", "coordinates": [17.004700989880497, -24.91627004754338]}}, {"type": "Feature", "properties": {"norad_id": 19223, "name": "NOVA 2", "group": "nnss", "lat": -19.53469766269724, "lon": 78.25444184005799, "alt_km": 1156.3225371953886, "timestamp": "2025-12-23T09:49:07.351703+00:00", "meta": {"OBJECT_NAME": "NOVA 2", "OBJECT_ID": "1988-052A", "EPOCH": "2025-12-22T19:59:41.866944", "MEAN_MOTION": 13.22936943, "ECCENTRICITY": 0.00297225, "INCLINATION": 89.9867, "RA_OF_ASC_NODE": 78.2599, "ARG_OF_PERICENTER": 349.0095, "MEAN_ANOMALY": 130.0034, "EPHEMERIS_TYPE": 0, "CLASSIFICATION_TYPE": "U", "NORAD_CAT_ID": 19223, "ELEMENT_SET_NO": 999, "REV_AT_EPOCH": 81081, "BSTAR": 0.00019678035, "MEAN_MOTION_DOT": 9.1e-07, "MEAN_MOTION_DDOT": 0}, "tle": {"line1": "1 19223U 88052A   25356.83312346  .00000091  00000+0  19678-3 0  9994", "line2": "2 19223  89.9867  78.2599 0029722 349.0095 130.0034 13.22936943810819"}}, "geometry": {"type": "Point", "coordinates": [78.25444184005799, -19.53469766269724]}}, {"type": "Feature", "properties": {"norad_id": 19419, "name": "OSCAR 25", "group": "nnss", "lat": 88.92251276896411, "lon": -157.9280064404549, "alt_km": 1131.2406183802495, "timestamp": "2025-12-23T09:49:07.351713+00:00", "meta": {"OBJECT_NAME": "OSCAR 25", "OBJECT_ID": "1988-074A", "EPOCH": "2025-12-22T19:55:12.806112", "MEAN_MOTION": 13.42625155, "ECCENTRICITY": 0.00950286, "INCLINATION": 90.0337, "RA_OF_ASC_NODE": 20.2769, "ARG_OF_PERICENTER": 216.6546, "MEAN_ANOMALY": 317.9121, "EPHEMERIS_TYPE": 0, "CLASSIFICATION_TYPE": "U", "NORAD_CAT_ID": 19419, "ELEMENT_SET_NO": 999, "REV_AT_EPOCH": 82775, "BSTAR": 0.00012828793, "MEAN_MOTION_DOT": 8.3e-07, "MEAN_MOTION_DDOT": 0}, "tle": {"line1": "1 19419U 88074A   25356.83000933  .00000083  00000+0  12829-3 0  9993", "line2": "2 19419  90.0337  20.2769 0095028 216.6546 317.9121 13.42625155827755"}}, "geometry": {"type": "Point", "coordinates": [-157.9280064404549, 88.92251276896411]}}, {"type": "Feature", "properties": {"norad_id": 19420, "name": "OSCAR 31", "group": "nnss", "lat": -24.97368977005792, "lon": 20.646999970576395, "alt_km": 1145.8662516302456, "timestamp": "2025-12-23T09:49:07.351723+00:00", "meta": {"OBJECT_NAME": "OSCAR 31", "OBJECT_ID": "1988-074B", "EPOCH": "2025-12-22T20:30:10.280160", "MEAN_MOTION": 13.42586305, "ECCENTRICITY": 0.00934128, "INCLINATION": 90.0353, "RA_OF_ASC_NODE": 20.6286, "ARG_OF_PERICENTER": 210.7253, "MEAN_ANOMALY": 323.4705, "EPHEMERIS_TYPE": 0, "CLASSIFICATION_TYPE": "U", "NORAD_CAT_ID": 19420, "ELEMENT_SET_NO": 999, "REV_AT_EPOCH": 82786, "BSTAR": 0.0001254976, "MEAN_MOTION_DOT": 8.2e-07, "MEAN_MOTION_DDOT": 0}, "tle": {"line1": "1 19420U 88074B   25356.85428565  .00000082  00000+0  12550-3 0  9992", "line2": "2 19420  90.0353  20.6286 0093412 210.7253 323.4705 13.42586305827863"}}, "geometry": {"type": "Point", "coordinates": [20.646999970576395, -24.97368977005792]}}]}